[{"OBJECT_NAME":"STARLINK-36117","OBJECT_ID":"2025-281T","EPOCH":"2026-03-09T04:40:41.485440","MEAN_MOTION":15.27600059,"ECCENTRICITY":0.00017098,"INCLINATION":43.0016,"RA_OF_ASC_NODE":345.9355,"ARG_OF_PERICENTER":245.5337,"MEAN_ANOMALY":114.5336,"EPHEMERIS_TYPE":0,"CLASSIFICATION_TYPE":"U","NORAD_CAT_ID":66865,"ELEMENT_SET_NO":999,"REV_AT_EPOCH":1611,"BSTAR":0.00093133944,"MEAN_MOTION_DOT":0.00025471,"MEAN_MOTION_DDOT":0},{"OBJECT_NAME":"CZ-4C R\/B","OBJECT_ID":"2022-039B","EPOCH":"2026-03-09T15:51:32.485824","MEAN_MOTION":15.03008334,"ECCENTRICITY":0.0113659,"INCLINATION":98.2525,"RA_OF_ASC_NODE":105.9247,"ARG_OF_PERICENTER":45.8852,"MEAN_ANOMALY":315.1654,"EPHEMERIS_TYPE":0,"CLASSIFICATION_TYPE":"U","NORAD_CAT_ID":52258,"ELEMENT_SET_NO":999,"REV_AT_EPOCH":21291,"BSTAR":0.00022979194,"MEAN_MOTION_DOT":3.483e-5,"MEAN_MOTION_DDOT":0}]
